ORBCOMM FM103           
1 40091U 14040F   25262.12231502  .00000494  00000+0  14221-3 0  9995
2 40091  47.0053 294.1433 0002186 321.3622  38.7107 14.58304720577815
ORBCOMM FM114           
1 41179U 15081A   25262.20974152  .00000609  00000+0  16686-3 0  9998
2 41179  47.0023 202.7257 0001716  35.8553 324.2448 14.58341278518193
ORBCOMM FM119           
1 41180U 15081B   25262.27060326  .00000531  00000+0  15029-3 0  9990
2 41180  46.9996 111.7768 0000728 136.9814 223.1129 14.58276690519451
ORBCOMM FM105           
1 41181U 15081C   25262.03443645  .00000181  00000+0  95777-4 0  9994
2 41181  47.0006 126.9761 0001751   5.6191 354.4709 14.45289927514320
ORBCOMM FM110           
1 41182U 15081D   25262.20189275  .00000710  00000+0  18830-3 0  9992
2 41182  47.0013 202.2986 0003105 279.7802  80.2733 14.58352763518063
ORBCOMM FM118           
1 41183U 15081E   25262.16570918  .00000622  00000+0  16971-3 0  9992
2 41183  47.0035 202.7269 0003166 240.6046 119.4524 14.58331642518168
ORBCOMM FM112           
1 41184U 15081F   25261.00726068  .00000648  00000+0  17502-3 0  9993
2 41184  46.9983 116.8140 0001175  40.5821 319.5152 14.58390210519211
ORBCOMM FM113           
1 41185U 15081G   25260.98420584  .00000644  00000+0  17400-3 0  9997
2 41185  46.9998 117.2625 0000897  61.0027 299.0948 14.58384547519195
